{"type": "FeatureCollection", "features": [ {"type": "Feature", "properties": {"norad_id": 36420, "name": "COSMOS 2251 DEB", "group": "cosmos-2251-debris", "lat": 24.997946250268612, "lon": -59.47943988027635, "alt_km": 755.1153959181875, "timestamp": "2025-12-03T06:58:43.639290+00:00", "meta": {"OBJECT_NAME": "COSMOS 2251 DEB", "OBJECT_ID": "1993-036AZT", "EPOCH": "2025-12-02T14:58:20.214912", "MEAN_MOTION": 14.36884157, "ECCENTRICITY": 0.0017649, "INCLINATION": 74.0371, "RA_OF_ASC_NODE": 294.0766, "ARG_OF_PERICENTER": 24.2997, "MEAN_ANOMALY": 153.3267, "EPHEMERIS_TYPE": 0, "CLASSIFICATION_TYPE": "U", "NORAD_CAT_ID": 36420, "ELEMENT_SET_NO": 999, "REV_AT_EPOCH": 84891, "BSTAR": 0.00021564336, "MEAN_MOTION_DOT": 6.13e-06, "MEAN_MOTION_DDOT": 0}, "tle": {"line1": "1 36420U 93036AZT 25336.62384508  .00000613  00000+0  21564-3 0  9991", "line2": "2 36420  74.0371 294.0766 0017649  24.2997 153.3267 14.36884157848917"}}, "geometry": {"type": "Point", "coordinates": [-59.47943988027635, 24.997946250268612]}}, {"type": "Feature", "properties": {"norad_id": 36430, "name": "COSMOS 2251 DEB", "group": "cosmos-2251-debris", "lat": -2.2165974779285964, "lon": 125.0445270160218, "alt_km": 789.6056273618051, "timestamp": "2025-12-03T06:58:43.639300+00:00", "meta": {"OBJECT_NAME": "COSMOS 2251 DEB", "OBJECT_ID": "1993-036BAD", "EPOCH": "2025-12-02T02:24:06.345216", "MEAN_MOTION": 14.27749233, "ECCENTRICITY": 0.00972219, "INCLINATION": 74.0032, "RA_OF_ASC_NODE": 127.8413, "ARG_OF_PERICENTER": 280.0414, "MEAN_ANOMALY": 78.9776, "EPHEMERIS_TYPE": 0, "CLASSIFICATION_TYPE": "U", "NORAD_CAT_ID": 36430, "ELEMENT_SET_NO": 999, "REV_AT_EPOCH": 64405, "BSTAR": 0.00050130436, "MEAN_MOTION_DOT": 1.275e-05, "MEAN_MOTION_DDOT": 0}, "tle": {"line1": "1 36430U 93036BAD 25336.10007344  .00001275  00000+0  50130-3 0  9991", "line2": "2 36430  74.0032 127.8413 0097221 280.0414  78.9776 14.27749233644055"}}, "geometry": {"type": "Point", "coordinates": [125.0445270160218, -2.2165974779285964]}}, {"type": "Feature", "properties": {"norad_id": 36437, "name": "COSMOS 2251 DEB", "group": "cosmos-2251-debris", "lat": -11.246408015841263, "lon": 49.15889843248448, "alt_km": 656.7587019306484, "timestamp": "2025-12-03T06:58:43.639310+00:00", "meta": {"OBJECT_NAME": "COSMOS 2251 DEB", "OBJECT_ID": "1993-036BAL", "EPOCH": "2025-12-02T11:26:13.789536", "MEAN_MOTION": 14.70384641, "ECCENTRICITY": 0.00232702, "INCLINATION": 73.9439, "RA_OF_ASC_NODE": 54.0297, "ARG_OF_PERICENTER": 285.4063, "MEAN_ANOMALY": 74.4537, "EPHEMERIS_TYPE": 0, "CLASSIFICATION_TYPE": "U", "NORAD_CAT_ID": 36437, "ELEMENT_SET_NO": 999, "REV_AT_EPOCH": 65900, "BSTAR": 0.0018662982, "MEAN_MOTION_DOT": 0.00011325, "MEAN_MOTION_DDOT": 0}, "tle": {"line1": "1 36437U 93036BAL 25336.47654849  .00011325  00000+0  18663-2 0  9997", "line2": "2 36437  73.9439  54.0297 0023270 285.4063  74.4537 14.70384641659007"}}, "geometry": {"type": "Point", "coordinates": [49.15889843248448, -11.246408015841263]}}, {"type": "Feature", "properties": {"norad_id": 36439, "name": "COSMOS 2251 DEB", "group": "cosmos-2251-debris", "lat": 44.082971758247304, "lon": -144.37147521277703, "alt_km": 1161.4583968887073, "timestamp": "2025-12-03T06:58:43.639319+00:00", "meta": {"OBJECT_NAME": "COSMOS 2251 DEB", "OBJECT_ID": "1993-036BAN", "EPOCH": "2025-11-28T12:20:46.608576", "MEAN_MOTION": 13.47759109, "ECCENTRICITY": 0.04273078, "INCLINATION": 73.9677, "RA_OF_ASC_NODE": 59.4166, "ARG_OF_PERICENTER": 34.2696, "MEAN_ANOMALY": 328.5204, "EPHEMERIS_TYPE": 0, "CLASSIFICATION_TYPE": "U", "NORAD_CAT_ID": 36439, "ELEMENT_SET_NO": 999, "REV_AT_EPOCH": 58421, "BSTAR": 0.00064226543, "MEAN_MOTION_DOT": 6.71e-06, "MEAN_MOTION_DDOT": 0}, "tle": {"line1": "1 36439U 93036BAN 25332.51442834  .00000671  00000+0  64227-3 0  9999", "line2": "2 36439  73.9677  59.4166 0427307  34.2696 328.5204 13.47759109584210"}}, "geometry": {"type": "Point", "coordinates": [-144.37147521277703, 44.082971758247304]}}, {"type": "Feature", "properties": {"norad_id": 36441, "name": "COSMOS 2251 DEB", "group": "cosmos-2251-debris", "lat": -55.67628619315725, "lon": -15.735839311172048, "alt_km": 627.6643031043541, "timestamp": "2025-12-03T06:58:43.639341+00:00", "meta": {"OBJECT_NAME": "COSMOS 2251 DEB", "OBJECT_ID": "1993-036BAQ", "EPOCH": "2025-12-01T10:37:17.028480", "MEAN_MOTION": 15.06528579, "ECCENTRICITY": 0.01088896, "INCLINATION": 73.8359, "RA_OF_ASC_NODE": 13.2432, "ARG_OF_PERICENTER": 115.0998, "MEAN_ANOMALY": 246.1538, "EPHEMERIS_TYPE": 0, "CLASSIFICATION_TYPE": "U", "NORAD_CAT_ID": 36441, "ELEMENT_SET_NO": 999, "REV_AT_EPOCH": 86795, "BSTAR": 0.00050507629, "MEAN_MOTION_DOT": 8.513e-05, "MEAN_MOTION_DDOT": 0}, "tle": {"line1": "1 36441U 93036BAQ 25335.44255820  .00008513  00000+0  50508-3 0  9994", "line2": "2 36441  73.8359  13.2432 0108889 115.0998 246.1538 15.06528579867959"}}, "geometry": {"type": "Point", "coordinates": [-15.735839311172048, -55.67628619315725]}}, {"type": "Feature", "properties": {"norad_id": 36442, "name": "COSMOS 2251 DEB", "group": "cosmos-2251-debris", "lat": 72.47410012548976, "lon": 173.67091571974612, "alt_km": 486.5643011331276, "timestamp": "2025-12-03T06:58:43.639351+00:00", "meta": {"OBJECT_NAME": "COSMOS 2251 DEB", "OBJECT_ID": "1993-036BAR", "EPOCH": "2025-11-30T23:26:58.990560", "MEAN_MOTION": 15.24721511, "ECCENTRICITY": 0.00074124, "INCLINATION": 73.9503, "RA_OF_ASC_NODE": 64.3117, "ARG_OF_PERICENTER": 319.957, "MEAN_ANOMALY": 40.1082, "EPHEMERIS_TYPE": 0, "CLASSIFICATION_TYPE": "U", "NORAD_CAT_ID": 36442, "ELEMENT_SET_NO": 999, "REV_AT_EPOCH": 85736, "BSTAR": 0.0052461948, "MEAN_MOTION_DOT": 0.00132297, "MEAN_MOTION_DDOT": 0}, "tle": {"line1": "1 36442U 93036BAR 25334.97707165  .00132297  00000+0  52462-2 0  9993", "line2": "2 36442  73.9503  64.3117 0007412 319.9570  40.1082 15.24721511857361"}}, "geometry": {"type": "Point", "coordinates": [173.67091571974612, 72.47410012548976]}}, {"type": "Feature", "properties": {"norad_id": 36451, "name": "COSMOS 2251 DEB", "group": "cosmos-2251-debris", "lat": 66.89275255212378, "lon": 34.5984317938681, "alt_km": 856.1673275281937, "timestamp": "2025-12-03T06:58:43.639362+00:00", "meta": {"OBJECT_NAME": "COSMOS 2251 DEB", "OBJECT_ID": "1993-036BBA", "EPOCH": "2025-12-02T18:46:44.967360", "MEAN_MOTION": 14.18689973, "ECCENTRICITY": 0.0184611, "INCLINATION": 73.9543, "RA_OF_ASC_NODE": 353.0964, "ARG_OF_PERICENTER": 179.7047, "MEAN_ANOMALY": 180.4241, "EPHEMERIS_TYPE": 0, "CLASSIFICATION_TYPE": "U", "NORAD_CAT_ID": 36451, "ELEMENT_SET_NO": 999, "REV_AT_EPOCH": 84084, "BSTAR": 0.00098989, "MEAN_MOTION_DOT": 2.407e-05, "MEAN_MOTION_DDOT": 0}, "tle": {"line1": "1 36451U 93036BBA 25336.78246490  .00002407  00000+0  98989-3 0  9997", "line2": "2 36451  73.9543 353.0964 0184611 179.7047 180.4241 14.18689973840848"}}, "geometry": {"type": "Point", "coordinates": [34.5984317938681, 66.89275255212378]}}, {"type": "Feature", "properties": {"norad_id": 36453, "name": "COSMOS 2251 DEB", "group": "cosmos-2251-debris", "lat": -70.83906250303494, "lon": 46.42353015414181, "alt_km": 774.2159974899587, "timestamp": "2025-12-03T06:58:43.639372+00:00", "meta": {"OBJECT_NAME": "COSMOS 2251 DEB", "OBJECT_ID": "1993-036BBC", "EPOCH": "2025-12-02T19:56:07.658016", "MEAN_MOTION": 14.52492753, "ECCENTRICITY": 0.0070257, "INCLINATION": 73.9227, "RA_OF_ASC_NODE": 171.2001, "ARG_OF_PERICENTER": 77.257, "MEAN_ANOMALY": 297.1324, "EPHEMERIS_TYPE": 0, "CLASSIFICATION_TYPE": "U", "NORAD_CAT_ID": 36453, "ELEMENT_SET_NO": 999, "REV_AT_EPOCH": 84324, "BSTAR": 0.0011312, "MEAN_MOTION_DOT": 4.743e-05, "MEAN_MOTION_DDOT": 0}, "tle": {"line1": "1 36453U 93036BBC 25336.83064419  .00004743  00000+0  11312-2 0  9993", "line2": "2 36453  73.9227 171.2001 0070257  77.2570 297.1324 14.52492753843245"}}, "geometry": {"type": "Point", "coordinates": [46.42353015414181, -70.83906250303494]}}, {"type": "Feature", "properties": {"norad_id": 36459, "name": "COSMOS 2251 DEB", "group": "cosmos-2251-debris", "lat": -12.463807284694703, "lon": 13.246155608236627, "alt_km": 858.2767921781333, "timestamp": "2025-12-03T06:58:43.639383+00:00", "meta": {"OBJECT_NAME": "COSMOS 2251 DEB", "OBJECT_ID": "1993-036BBJ", "EPOCH": "2025-11-27T21:25:14.011392", "MEAN_MOTION": 14.2626117, "ECCENTRICITY": 0.0114133, "INCLINATION": 74.0487, "RA_OF_ASC_NODE": 26.6161, "ARG_OF_PERICENTER": 126.4072, "MEAN_ANOMALY": 234.7668, "EPHEMERIS_TYPE": 0, "CLASSIFICATION_TYPE": "U", "NORAD_CAT_ID": 36459, "ELEMENT_SET_NO": 999, "REV_AT_EPOCH": 7670, "BSTAR": 0.0017749, "MEAN_MOTION_DOT": 4.537e-05, "MEAN_MOTION_DDOT": 0}, "tle": {"line1": "1 36459U 93036BBJ 25331.89252328  .00004537  00000+0  17749-2 0  9999", "line2": "2 36459  74.0487  26.6161 0114133 126.4072 234.7668 14.26261170 76702"}}, "geometry": {"type": "Point", "coordinates": [13.246155608236627, -12.463807284694703]}}, {"type": "Feature", "properties": {"norad_id": 36470, "name": "COSMOS 2251 DEB", "group": "cosmos-2251-debris", "lat": -4.412104808823347, "lon": 95.31405863412824, "alt_km": 550.6546501443872, "timestamp": "2025-12-03T06:58:43.639393+00:00", "meta": {"OBJECT_NAME": "COSMOS 2251 DEB", "OBJECT_ID": "1993-036BBV", "EPOCH": "2025-12-02T03:03:18.136800", "MEAN_MOTION": 15.05586615, "ECCENTRICITY": 0.00218493, "INCLINATION": 73.8455, "RA_OF_ASC_NODE": 276.4446, "ARG_OF_PERICENTER": 104.1241, "MEAN_ANOMALY": 256.2378, "EPHEMERIS_TYPE": 0, "CLASSIFICATION_TYPE": "U", "NORAD_CAT_ID": 36470, "ELEMENT_SET_NO": 999, "REV_AT_EPOCH": 65934, "BSTAR": 0.0040110233, "MEAN_MOTION_DOT": 0.00058582, "MEAN_MOTION_DDOT": 0}, "tle": {"line1": "1 36470U 93036BBV 25336.12729325  .00058582  00000+0  40110-2 0  9996", "line2": "2 36470  73.8455 276.4446 0021849 104.1241 256.2378 15.05586615659346"}}, "geometry": {"type": "Point", "coordinates": [95.31405863412824, -4.412104808823347]}}]}